{
  "type": "FeatureCollection",
  "features": [
    {
      "type": "Feature",
      "properties": {
        "norad_id": 31674,
        "name": "FENGYUN 1C DEB",
        "group": "fengyun-1c-debris",
        "lat": -76.36874534489156,
        "lon": 55.8874256884498,
        "alt_km": 712.8467931482201,
        "timestamp": "2025-12-05T14:45:15.582581+00:00",
        "meta_object_name": "FENGYUN 1C DEB",
        "meta_object_id": "1999-025CCG",
        "meta_epoch": "2025-11-28T07:44:59.946720",
        "meta_mean_motion": 14.51401446,
        "meta_eccentricity": 0.00238865,
        "meta_inclination": 98.9271,
        "meta_ra_of_asc_node": 7.7446,
        "meta_arg_of_pericenter": 330.3247,
        "meta_mean_anomaly": 29.659,
        "meta_ephemeris_type": 0,
        "meta_classification_type": "U",
        "meta_norad_cat_id": 31674,
        "meta_element_set_no": 999,
        "meta_rev_at_epoch": 64405,
        "meta_bstar": 0.0029129035,
        "meta_mean_motion_dot": 0.0001163,
        "meta_mean_motion_ddot": 0,
        "tle_line1": "1 31674U 99025CCG 25332.32291605  .00011630  00000+0  29129-2 0  9994",
        "tle_line2": "2 31674  98.9271   7.7446 0023886 330.3247  29.6590 14.51401446644056"
      },
      "geometry": {
        "type": "Point",
        "coordinates": [
          55.8874256884498,
          -76.36874534489156
        ]
      }
    },
    {
      "type": "Feature",
      "properties": {
        "norad_id": 31678,
        "name": "FENGYUN 1C DEB",
        "group": "fengyun-1c-debris",
        "lat": -25.669993455306198,
        "lon": -95.83786034791062,
        "alt_km": 889.6128805591843,
        "timestamp": "2025-12-05T14:45:15.582591+00:00",
        "meta_object_name": "FENGYUN 1C DEB",
        "meta_object_id": "1999-025CCL",
        "meta_epoch": "2025-11-26T13:19:25.960512",
        "meta_mean_motion": 14.5293095,
        "meta_eccentricity": 0.02605683,
        "meta_inclination": 98.7996,
        "meta_ra_of_asc_node": 78.917,
        "meta_arg_of_pericenter": 76.9742,
        "meta_mean_anomaly": 286.0402,
        "meta_ephemeris_type": 0,
        "meta_classification_type": "U",
        "meta_norad_cat_id": 31678,
        "meta_element_set_no": 999,
        "meta_rev_at_epoch": 96604,
        "meta_bstar": 0.0012745717,
        "meta_mean_motion_dot": 8.183e-05,
        "meta_mean_motion_ddot": 0,
        "tle_line1": "1 31678U 99025CCL 25330.55516158  .00008183  00000+0  12746-2 0  9990",
        "tle_line2": "2 31678  98.7996  78.9170 0260568  76.9742 286.0402 14.52930950966044"
      },
      "geometry": {
        "type": "Point",
        "coordinates": [
          -95.83786034791062,
          -25.669993455306198
        ]
      }
    },
    {
      "type": "Feature",
      "properties": {
        "norad_id": 31680,
        "name": "FENGYUN 1C DEB",
        "group": "fengyun-1c-debris",
        "lat": 43.548095401329064,
        "lon": -85.57874284030886,
        "alt_km": 544.4588711822098,
        "timestamp": "2025-12-05T14:45:15.582602+00:00",
        "meta_object_name": "FENGYUN 1C DEB",
        "meta_object_id": "1999-025CCN",
        "meta_epoch": "2025-12-01T12:24:56.280384",
        "meta_mean_motion": 15.23129084,
        "meta_eccentricity": 0.00767187,
        "meta_inclination": 99.8371,
        "meta_ra_of_asc_node": 79.5688,
        "meta_arg_of_pericenter": 326.4476,
        "meta_mean_anomaly": 33.1906,
        "meta_ephemeris_type": 0,
        "meta_classification_type": "U",
        "meta_norad_cat_id": 31680,
        "meta_element_set_no": 999,
        "meta_rev_at_epoch": 1,
        "meta_bstar": 0.0012783451,
        "meta_mean_motion_dot": 0.00032771,
        "meta_mean_motion_ddot": 0,
        "tle_line1": "1 31680U 99025CCN 25335.51731806  .00032771  00000+0  12783-2 0  9994",
        "tle_line2": "2 31680  99.8371  79.5688 0076718 326.4476  33.1906 15.23129084    19"
      },
      "geometry": {
        "type": "Point",
        "coordinates": [
          -85.57874284030886,
          43.548095401329064
        ]
      }
    },
    {
      "type": "Feature",
      "properties": {
        "norad_id": 31685,
        "name": "FENGYUN 1C DEB",
        "group": "fengyun-1c-debris",
        "lat": -8.346636866995484,
        "lon": 5.341870364035493,
        "alt_km": 867.3168967379443,
        "timestamp": "2025-12-05T14:45:15.582613+00:00",
        "meta_object_name": "FENGYUN 1C DEB",
        "meta_object_id": "1999-025CCT",
        "meta_epoch": "2025-12-04T08:07:53.037120",
        "meta_mean_motion": 14.09653898,
        "meta_eccentricity": 0.0015648,
        "meta_inclination": 98.7317,
        "meta_ra_of_asc_node": 2.8124,
        "meta_arg_of_pericenter": 250.6684,
        "meta_mean_anomaly": 109.2795,
        "meta_ephemeris_type": 0,
        "meta_classification_type": "U",
        "meta_norad_cat_id": 31685,
        "meta_element_set_no": 999,
        "meta_rev_at_epoch": 94971,
        "meta_bstar": 0.0001707,
        "meta_mean_motion_dot": 2.57e-06,
        "meta_mean_motion_ddot": 0,
        "tle_line1": "1 31685U 99025CCT 25338.33880830  .00000257  00000+0  17070-3 0  9993",
        "tle_line2": "2 31685  98.7317   2.8124 0015648 250.6684 109.2795 14.09653898949718"
      },
      "geometry": {
        "type": "Point",
        "coordinates": [
          5.341870364035493,
          -8.346636866995484
        ]
      }
    },
    {
      "type": "Feature",
      "properties": {
        "norad_id": 31686,
        "name": "FENGYUN 1C DEB",
        "group": "fengyun-1c-debris",
        "lat": -39.020295952970365,
        "lon": 57.84905642174365,
        "alt_km": 835.9178299512496,
        "timestamp": "2025-12-05T14:45:15.582623+00:00",
        "meta_object_name": "FENGYUN 1C DEB",
        "meta_object_id": "1999-025CCU",
        "meta_epoch": "2025-12-02T03:43:38.757216",
        "meta_mean_motion": 14.71793489,
        "meta_eccentricity": 0.02845072,
        "meta_inclination": 98.1533,
        "meta_ra_of_asc_node": 47.7056,
        "meta_arg_of_pericenter": 123.0943,
        "meta_mean_anomaly": 239.7923,
        "meta_ephemeris_type": 0,
        "meta_classification_type": "U",
        "meta_norad_cat_id": 31686,
        "meta_element_set_no": 999,
        "meta_rev_at_epoch": 97663,
        "meta_bstar": 0.0010846923,
        "meta_mean_motion_dot": 0.00012851,
        "meta_mean_motion_ddot": 0,
        "tle_line1": "1 31686U 99025CCU 25336.15530969  .00012851  00000+0  10847-2 0  9994",
        "tle_line2": "2 31686  98.1533  47.7056 0284507 123.0943 239.7923 14.71793489976631"
      },
      "geometry": {
        "type": "Point",
        "coordinates": [
          57.84905642174365,
          -39.020295952970365
        ]
      }
    },
    {
      "type": "Feature",
      "properties": {
        "norad_id": 31688,
        "name": "FENGYUN 1C DEB",
        "group": "fengyun-1c-debris",
        "lat": -53.46625371001048,
        "lon": 46.110670734603644,
        "alt_km": 937.2246877926273,
        "timestamp": "2025-12-05T14:45:15.582634+00:00",
        "meta_object_name": "FENGYUN 1C DEB",
        "meta_object_id": "1999-025CCW",
        "meta_epoch": "2025-12-03T09:55:56.692704",
        "meta_mean_motion": 14.02313895,
        "meta_eccentricity": 0.00750947,
        "meta_inclination": 98.9671,
        "meta_ra_of_asc_node": 31.6401,
        "meta_arg_of_pericenter": 166.8636,
        "meta_mean_anomaly": 193.4509,
        "meta_ephemeris_type": 0,
        "meta_classification_type": "U",
        "meta_norad_cat_id": 31688,
        "meta_element_set_no": 999,
        "meta_rev_at_epoch": 95147,
        "meta_bstar": 2.1219756e-05,
        "meta_mean_motion_dot": -1e-07,
        "meta_mean_motion_ddot": 0,
        "tle_line1": "1 31688U 99025CCW 25337.41385061 -.00000010  00000+0  21220-4 0  9991",
        "tle_line2": "2 31688  98.9671  31.6401 0075094 166.8636 193.4509 14.02313895951477"
      },
      "geometry": {
        "type": "Point",
        "coordinates": [
          46.110670734603644,
          -53.46625371001048
        ]
      }
    },
    {
      "type": "Feature",
      "properties": {
        "norad_id": 31691,
        "name": "FENGYUN 1C DEB",
        "group": "fengyun-1c-debris",
        "lat": -61.44229180568304,
        "lon": -130.74979466319672,
        "alt_km": 770.7017467089845,
        "timestamp": "2025-12-05T14:45:15.582644+00:00",
        "meta_object_name": "FENGYUN 1C DEB",
        "meta_object_id": "1999-025CCZ",
        "meta_epoch": "2025-12-02T23:18:27.511200",
        "meta_mean_motion": 14.25966665,
        "meta_eccentricity": 0.00603814,
        "meta_inclination": 98.8825,
        "meta_ra_of_asc_node": 63.2695,
        "meta_arg_of_pericenter": 267.1233,
        "meta_mean_anomaly": 92.3035,
        "meta_ephemeris_type": 0,
        "meta_classification_type": "U",
        "meta_norad_cat_id": 31691,
        "meta_element_set_no": 999,
        "meta_rev_at_epoch": 63972,
        "meta_bstar": 0.0030104933,
        "meta_mean_motion_dot": 7.279e-05,
        "meta_mean_motion_ddot": 0,
        "tle_line1": "1 31691U 99025CCZ 25336.97115175  .00007279  00000+0  30105-2 0  9995",
        "tle_line2": "2 31691  98.8825  63.2695 0060381 267.1233  92.3035 14.25966665639724"
      },
      "geometry": {
        "type": "Point",
        "coordinates": [
          -130.74979466319672,
          -61.44229180568304
        ]
      }
    }
  ]
}